BEIDOU-2 IGSO-1 (C06)   
1 36828U 10036A   24169.61428199 -.00000024  00000+0  00000+0 0  9994
2 36828  54.2533 169.5588 0041969 207.1575 218.3459  1.00282831 50898
BEIDOU-2 G4 (C04)       
1 37210U 10057A   24169.68785024 -.00000091  00000+0  00000+0 0  9997
2 37210   1.8461  68.8266 0003122 161.2244  84.0698  1.00271422 49972
BEIDOU-2 IGSO-2 (C07)   
1 37256U 10068A   24169.72883833 -.00000209  00000+0  00000+0 0  9992
2 37256  48.8785 280.8170 0035761 209.9945 142.8663  1.00250261 49472
BEIDOU-2 IGSO-3 (C08)   
1 37384U 11013A   24169.66229071 -.00000193  00000+0  00000+0 0  9998
2 37384  61.3510  47.1064 0026669 175.0613  29.3075  1.00258893 48348
BEIDOU-2 IGSO-4 (C09)   
1 37763U 11038A   24169.68889682  .00000082  00000+0  00000+0 0  9994
2 37763  54.5589 172.1690 0125755 229.0511 207.6222  1.00259499 47332
BEIDOU-2 IGSO-5 (C10)   
1 37948U 11073A   24169.18556265 -.00000191  00000+0  00000+0 0  9993
2 37948  49.0118 280.5101 0100549 220.1682 285.4567  1.00294088 45810
BEIDOU-2 G5 (C05)       
1 38091U 12008A   24169.73928473  .00000078  00000+0  00000+0 0  9990
2 38091   2.0771  70.8877 0005483 273.1947 247.1700  1.00271323 45054
BEIDOU-2 M3 (C11)       
1 38250U 12018A   24168.93278325 -.00000083  00000+0  00000+0 0  9990
2 38250  56.3392 329.3501 0020895 262.3912  97.3680  1.86231389 82341
BEIDOU-2 M4 (C12)       
1 38251U 12018B   24168.86298496 -.00000083  00000+0  00000+0 0  9994
2 38251  56.2462 328.6241 0011771 263.8977  95.9644  1.86232113 82342
BEIDOU-2 M6 (C14)       
1 38775U 12050B   24169.10944008 -.00000046  00000+0  00000+0 0  9995
2 38775  55.9127  87.1656 0013954 339.8132  20.1265  1.86231225 79715
BEIDOU-2 G6 (C02)       
1 38953U 12059A   24169.80049446 -.00000156  00000+0  00000+0 0  9993
2 38953   2.5612  80.5074 0009902 317.8583 240.4178  1.00272816 42598
BEIDOU-3S IGSO-1S (C31) 
1 40549U 15019A   24169.17818882 -.00000163  00000+0  00000+0 0  9992
2 40549  50.5747 304.1919 0038399 192.2249 283.9065  1.00251012 33753
BEIDOU-3S M2S (C58)     
1 40748U 15037A   24169.06321870 -.00000084  00000+0  00000+0 0  9999
2 40748  55.4781 327.0384 0008462 247.4133 112.4920  1.86233311 60526
BEIDOU-3S M1S (C57)     
1 40749U 15037B   24168.25971501 -.00000086  00000+0  00000+0 0  9994
2 40749  55.4816 327.0527 0003297   0.7180 359.2781  1.86233084 60510
BEIDOU-3S IGSO-2S (C56) 
1 40938U 15053A   24169.67665878 -.00000143  00000+0  00000+0 0  9990
2 40938  50.3566 267.4015 0052558 190.2817 147.7601  1.00262579 32035
BEIDOU-2 IGSO-6 (C13)   
1 41434U 16021A   24166.42849341 -.00000173  00000+0  00000+0 0  9990
2 41434  59.1726  45.3748 0047867 222.9947 244.9586  1.00272026 30131
BEIDOU-2 G7 (C03)       
1 41586U 16037A   24169.69493905 -.00000334  00000+0  00000+0 0  9997
2 41586   1.9080  69.6778 0009290   4.1577 193.2911  1.00275149 29478
BEIDOU-3 M1 (C19)       
1 43001U 17069A   24169.41242403 -.00000046  00000+0  00000+0 0  9992
2 43001  56.0633  87.2525 0010752 309.0281  50.8711  1.86231634 45016
BEIDOU-3 M2 (C20)       
1 43002U 17069B   24169.34966748 -.00000046  00000+0  00000+0 0  9990
2 43002  56.0625  87.2902 0009052 332.2012  27.7451  1.86231111 45001
BEIDOU-3 M7 (C27)       
1 43107U 18003A   24169.09878388 -.00000085  00000+0  00000+0 0  9992
2 43107  54.9361 327.6281 0004773  77.5053 282.5436  1.86232639 43751
BEIDOU-3 M8 (C28)       
1 43108U 18003B   24169.03921406 -.00000086  00000+0  00000+0 0  9998
2 43108  54.9291 327.6157 0002627 251.7759 108.1910  1.86231084 43765
BEIDOU-3 M4 (C22)       
1 43207U 18018A   24168.40660055 -.00000045  00000+0  00000+0 0  9999
2 43207  56.0215  87.3750 0006926 357.2645   2.7267  1.86231572 43132
BEIDOU-3 M3 (C21)       
1 43208U 18018B   24168.47318684 -.00000045  00000+0  00000+0 0  9995
2 43208  56.0210  87.3771 0008816 321.7585  38.1741  1.86231473 43130
BEIDOU-3 M9 (C29)       
1 43245U 18029A   24169.23137349 -.00000085  00000+0  00000+0 0  9994
2 43245  54.8196 325.3316 0000605 132.9479 227.0507  1.86232901 42306
BEIDOU-3 M10 (C30)      
1 43246U 18029B   24169.16105219 -.00000085  00000+0  00000+0 0  9998
2 43246  54.8167 325.3617 0003630  22.9058 337.1040  1.86233078 42289
BEIDOU-2 IGSO-7 (C16)   
1 43539U 18057A   24169.61422499 -.00000024  00000+0  00000+0 0  9999
2 43539  55.1427 169.3643 0075410 233.6728 194.9926  1.00253204 21820
BEIDOU-3 M5 (C23)       
1 43581U 18062A   24169.38412501  .00000097  00000+0  00000+0 0  9998
2 43581  54.1323 207.1275 0005303 274.9765  85.0460  1.86228903 40046
BEIDOU-3 M6 (C24)       
1 43582U 18062B   24169.24999630  .00000096  00000+0  00000+0 0  9996
2 43582  54.1319 207.1215 0004213 357.7312   2.3494  1.86229753 40046
BEIDOU-3 M12 (C26)      
1 43602U 18067A   24168.64638434  .00000091  00000+0  00000+0 0  9994
2 43602  54.2228 205.8231 0006645  18.0127 342.0901  1.86231816 39514
BEIDOU-3 M11 (C25)      
1 43603U 18067B   24168.24337961  .00000085  00000+0  00000+0 0  9995
2 43603  54.2198 205.8020 0003667 359.8439   0.2335  1.86231706 39534
BEIDOU-3 M13 (C32)      
1 43622U 18072A   24169.27822650 -.00000047  00000+0  00000+0 0  9999
2 43622  55.9930  86.8768 0007314 309.6716  50.2592  1.86231628 39068
BEIDOU-3 M14 (C33)      
1 43623U 18072B   24169.14368243 -.00000047  00000+0  00000+0 0  9999
2 43623  55.9947  86.8744 0005675 337.2736  22.6966  1.86231634 39052
BEIDOU-3 M16 (C35)      
1 43647U 18078A   24169.30638694 -.00000085  00000+0  00000+0 0  9991
2 43647  54.7156 325.4274 0007058  24.5567 335.4704  1.86232394 38566
BEIDOU-3 M15 (C34)      
1 43648U 18078B   24168.89861688 -.00000086  00000+0  00000+0 0  9997
2 43648  54.7117 325.4444 0004213  40.7710 319.2546  1.86232407 38573
BEIDOU-3 G1 (C59)       
1 43683U 18085A   24169.89855590 -.00000256  00000+0  00000+0 0  9999
2 43683   2.1932 109.5561 0004046 349.5822 271.0034  1.00274317 20742
BEIDOU-3 M17 (C36)      
1 43706U 18093A   24169.58591913  .00000099  00000+0  00000+0 0  9990
2 43706  54.2151 207.0590 0010208 279.7742  80.1945  1.86228554 37954
BEIDOU-3 M18 (C37)      
1 43707U 18093B   24169.45125801  .00000098  00000+0  00000+0 0  9995
2 43707  54.2159 207.0554 0008049 304.6308  55.3767  1.86230030 37946
BEIDOU-3 IGSO-1 (C38)   
1 44204U 19023A   24169.20542142 -.00000226  00000+0  00000+0 0  9990
2 44204  57.6415  45.2233 0018941 209.3642 200.6006  1.00249867 19025
BEIDOU-2 G8 (C01)       
1 44231U 19027A   24169.89951314 -.00000227  00000+0  00000+0 0  9995
2 44231   1.9502  73.9209 0002289 155.0268 145.9574  1.00276146 18765
BEIDOU-3 IGSO-2 (C39)   
1 44337U 19035A   24169.83035480 -.00000035  00000+0  00000+0 0  9999
2 44337  55.1795 165.2626 0035429 205.1381 311.1539  1.00297555 18350
BEIDOU-3 M24 (C46)      
1 44542U 19061A   24169.52084683  .00000099  00000+0  00000+0 0  9990
2 44542  54.4429 207.3475 0007615 342.1867  17.8706  1.86231391 32207
BEIDOU-3 M23 (C45)      
1 44543U 19061B   24168.89723368  .00000092  00000+0  00000+0 0  9993
2 44543  54.4412 207.3376 0005298 321.1505 253.0732  1.86231846 32197
BEIDOU-3 IGSO-3 (C40)   
1 44709U 19073A   24168.74253630 -.00000213  00000+0  00000+0 0  9990
2 44709  56.0508 288.7317 0039066 181.7231 178.2331  1.00249659 17136
BEIDOU-3 M22 (C44)      
1 44793U 19078A   24168.82967007 -.00000087  00000+0  00000+0 0  9996
2 44793  54.5638 325.3760 0006082  33.5844 326.4482  1.86232333 31047
BEIDOU-3 M21 (C43)      
1 44794U 19078B   24168.95945934 -.00000086  00000+0  00000+0 0  9995
2 44794  54.5375 325.3476 0003936  32.5252 327.4930  1.86232783 31056
BEIDOU-3 M19 (C41)      
1 44864U 19090A   24169.53630722 -.00000047  00000+0  00000+0 0  9995
2 44864  55.9274  87.0398 0017971 285.2660 294.3390  1.86231915 30648
BEIDOU-3 M20 (C42)      
1 44865U 19090B   24169.40663448 -.00000047  00000+0  00000+0 0  9993
2 44865  55.9292  87.0775 0016015 298.7268 283.6716  1.86231836 30622
BEIDOU-3 G2 (C60)       
1 45344U 20017A   24169.74354885 -.00000122  00000+0  00000+0 0  9990
2 45344   2.3162  29.6694 0001516 101.2820 123.2434  1.00271668 15948
BEIDOU-3 G3 (C61)       
1 45807U 20040A   24169.84146535 -.00000332  00000+0  00000+0 0  9995
2 45807   0.7780  42.4494 0005029 284.8991 352.7396  1.00271441 14776
BEIDOU-3 G4             
1 56564U 23066A   24169.88660611 -.00000088  00000+0  00000+0 0  9996
2 56564   2.1213 288.2123 0005776 199.6749 257.9165  1.00270916  4086
BEIDOU-3 M25            
1 58654U 23207A   24169.04220144 -.00000047  00000+0  00000+0 0  9991
2 58654  55.1100  87.0719 0003217 309.3380  50.6281  1.86232415  3246
BEIDOU-3 M26            
1 58655U 23207B   24169.37811337 -.00000047  00000+0  00000+0 0  9998
2 58655  55.1123  87.0459 0003511 284.4962  75.4593  1.86232040  3233
